COMMENT,ORIGINATOR,NORAD_CAT_ID,OBJECT_NAME,OBJECT_TYPE,CLASSIFICATION_TYPE,INTLDES,EPOCH,EPOCH_MICROSECONDS,MEAN_MOTION,ECCENTRICITY,INCLINATION,RA_OF_ASC_NODE,ARG_OF_PERICENTER,MEAN_ANOMALY,EPHEMERIS_TYPE,ELEMENT_SET_NO,REV_AT_EPOCH,BSTAR,MEAN_MOTION_DOT,MEAN_MOTION_DDOT,FILE,TLE_LINE0,TLE_LINE1,TLE_LINE2,OBJECT_ID,OBJECT_NUMBER,SEMIMAJOR_AXIS,PERIOD,APOGEE,PERIGEE,DECAYED
"GENERATED VIA SPACETRACK.ORG API","18 SPCS","55092","SPACEBEE-166","PAYLOAD","U","23001CM","2024-03-26 03:19:49","477440","15.39537552","0.0011104","97.4292","151.5873","90.8032","269.4486","0","999","6832","0.0028508","0.00113686","0","4245761","0 SPACEBEE-166","1 55092U 23001CM  24086.13876710  .00113686  00000-0  28508-2 0  9990","2 55092  97.4292 151.5873 0011104  90.8032 269.4486 15.39537552 68328","2023-001CM","55092","6825.613","93.535","455.057","439.899","0"
"GENERATED VIA SPACETRACK.ORG API","18 SPCS","55092","SPACEBEE-166","PAYLOAD","U","23001CM","2024-03-26 09:34:12","325728","15.39571583","0.001106","97.4294","151.8514","89.6288","270.6225","0","999","6836","0.0032215","0.00128872","0","4246578","0 SPACEBEE-166","1 55092U 23001CM  24086.39875377  .00128872  00000-0  32215-2 0  9999","2 55092  97.4294 151.8514 0011060  89.6288 270.6225 15.39571583 68366","2023-001CM","55092","6825.512","93.533","454.926","439.828","0"
"GENERATED VIA SPACETRACK.ORG API","18 SPCS","55092","SPACEBEE-166","PAYLOAD","U","23001CM","2024-03-26 09:34:12","325728","15.39571583","0.001106","97.4294","151.8514","89.6288","270.6225","0","999","6836","0.0032215","0.00128872","0","4246985","0 SPACEBEE-166","1 55092U 23001CM  24086.39875377  .00128872  00000-0  32215-2 0  9999","2 55092  97.4294 151.8514 0011060  89.6288 270.6225 15.39571583 68366","2023-001CM","55092","6825.512","93.533","454.926","439.828","0"
"GENERATED VIA SPACETRACK.ORG API","18 SPCS","55092","SPACEBEE-166","PAYLOAD","U","23001CM","2024-03-26 17:22:10","198560","15.39598108","0.0011037","97.4293","152.181","88.4573","271.7937","0","999","6841","0.0018535","0.00073651","0","4247232","0 SPACEBEE-166","1 55092U 23001CM  24086.72372915  .00073651  00000-0  18535-2 0  9999","2 55092  97.4293 152.1810 0011037  88.4573 271.7937 15.39598108 68416","2023-001CM","55092","6825.434","93.531","454.832","439.766","0"
"GENERATED VIA SPACETRACK.ORG API","18 SPCS","55092","SPACEBEE-166","PAYLOAD","U","23001CM","2024-03-26 17:22:10","198560","15.39598108","0.0011037","97.4293","152.181","88.4573","271.7937","0","999","6841","0.0018535","0.00073651","0","4247357","0 SPACEBEE-166","1 55092U 23001CM  24086.72372915  .00073651  00000-0  18535-2 0  9999","2 55092  97.4293 152.1810 0011037  88.4573 271.7937 15.39598108 68416","2023-001CM","55092","6825.434","93.531","454.832","439.766","0"
"GENERATED VIA SPACETRACK.ORG API","18 SPCS","55092","SPACEBEE-166","PAYLOAD","U","23001CM","2024-03-27 10:31:38","595360","15.3969545","0.0011024","97.4289","152.9067","86.63","273.6207","0","999","6852","0.001782","0.00071009","0","4247956","0 SPACEBEE-166","1 55092U 23001CM  24087.43864115  .00071009  00000-0  17820-2 0  9997","2 55092  97.4289 152.9067 0011024  86.6300 273.6207 15.39695450 68528","2023-001CM","55092","6825.146","93.525","454.535","439.487","0"
"GENERATED VIA SPACETRACK.ORG API","18 SPCS","55092","SPACEBEE-166","PAYLOAD","U","23001CM","2024-03-27 16:45:59","256","15.39722703","0.0010972","97.4286","153.1706","85.6732","274.5768","0","999","6856","0.0014065","0.00055969","0","4248210","0 SPACEBEE-166","1 55092U 23001CM  24087.69859954  .00055969  00000-0  14065-2 0  9995","2 55092  97.4286 153.1706 0010972  85.6732 274.5768 15.39722703 68565","2023-001CM","55092","6825.066","93.523","454.419","439.442","0"
"GENERATED VIA SPACETRACK.ORG API","18 SPCS","55092","SPACEBEE-166","PAYLOAD","U","23001CM","2024-03-27 16:45:59","256","15.39722703","0.0010972","97.4286","153.1706","85.6732","274.5768","0","999","6856","0.0014065","0.00055969","0","4248304","0 SPACEBEE-166","1 55092U 23001CM  24087.69859954  .00055969  00000-0  14065-2 0  9995","2 55092  97.4286 153.1706 0010972  85.6732 274.5768 15.39722703 68565","2023-001CM","55092","6825.066","93.523","454.419","439.442","0"
"GENERATED VIA SPACETRACK.ORG API","18 SPCS","55092","SPACEBEE-166","PAYLOAD","U","23001CM","2024-03-28 03:41:03","473952","15.39782726","0.0010879","97.4284","153.6317","84.4355","275.8131","0","999","6863","0.0014162","0.00056468","0","4249182","0 SPACEBEE-166","1 55092U 23001CM  24088.15351243  .00056468  00000-0  14162-2 0  9998","2 55092  97.4284 153.6317 0010879  84.4355 275.8131 15.39782726 68637","2023-001CM","55092","6824.888","93.520","454.178","439.328","0"
"GENERATED VIA SPACETRACK.ORG API","18 SPCS","55092","SPACEBEE-166","PAYLOAD","U","23001CM","2024-03-28 03:41:03","473952","15.39782726","0.0010879","97.4284","153.6317","84.4355","275.8131","0","999","6863","0.0014162","0.00056468","0","4249391","0 SPACEBEE-166","1 55092U 23001CM  24088.15351243  .00056468  00000-0  14162-2 0  9998","2 55092  97.4284 153.6317 0010879  84.4355 275.8131 15.39782726 68637","2023-001CM","55092","6824.888","93.520","454.178","439.328","0"
"GENERATED VIA SPACETRACK.ORG API","18 SPCS","55092","SPACEBEE-166","PAYLOAD","U","23001CM","2024-03-29 03:04:42","459744","15.39905475","0.0010769","97.428","154.6212","81.1816","279.0649","0","999","6878","0.0013918","0.0005571","0","4249702","0 SPACEBEE-166","1 55092U 23001CM  24089.12826921  .00055710  00000-0  13918-2 0  9993","2 55092  97.4280 154.6212 0010769  81.1816 279.0649 15.39905475 68786","2023-001CM","55092","6824.526","93.512","453.740","439.041","0"
"GENERATED VIA SPACETRACK.ORG API","18 SPCS","55092","SPACEBEE-166","PAYLOAD","U","23001CM","2024-03-29 03:04:42","459744","15.39905475","0.0010769","97.428","154.6212","81.1816","279.0649","0","999","6878","0.0013918","0.0005571","0","4250244","0 SPACEBEE-166","1 55092U 23001CM  24089.12826921  .00055710  00000-0  13918-2 0  9993","2 55092  97.4280 154.6212 0010769  81.1816 279.0649 15.39905475 68786","2023-001CM","55092","6824.526","93.512","453.740","439.041","0"
"GENERATED VIA SPACETRACK.ORG API","18 SPCS","55092","SPACEBEE-166","PAYLOAD","U","23001CM","2024-03-29 21:47:32","850240","15.40002903","0.0010662","97.4278","155.4128","78.2269","282.0173","0","999","6890","0.0014455","0.00058064","0","4251655","0 SPACEBEE-166","1 55092U 23001CM  24089.90801910  .00058064  00000-0  14455-2 0  9992","2 55092  97.4278 155.4128 0010662  78.2269 282.0173 15.40002903 68905","2023-001CM","55092","6824.238","93.506","453.379","438.827","0"
"GENERATED VIA SPACETRACK.ORG API","18 SPCS","55092","SPACEBEE-166","PAYLOAD","U","23001CM","2024-03-30 04:01:48","721728","15.40034945","0.0010638","97.4278","155.6767","77.555","282.6886","0","999","6894","0.0012935","0.00051963","0","4252597","0 SPACEBEE-166","1 55092U 23001CM  24090.16792502  .00051963  00000-0  12935-2 0  9990","2 55092  97.4278 155.6767 0010638  77.5550 282.6886 15.40034945 68946","2023-001CM","55092","6824.143","93.504","453.268","438.749","0"
"GENERATED VIA SPACETRACK.ORG API","18 SPCS","55092","SPACEBEE-166","PAYLOAD","U","23001CM","2024-03-30 10:16:04","142208","15.40061067","0.0010634","97.4276","155.9409","76.4363","283.8066","0","999","6898","0.0013306","0.00053512","0","4253807","0 SPACEBEE-166","1 55092U 23001CM  24090.42782572  .00053512  00000-0  13306-2 0  9990","2 55092  97.4276 155.9409 0010634  76.4363 283.8066 15.40061067 68988","2023-001CM","55092","6824.066","93.503","453.188","438.674","0"
"GENERATED VIA SPACETRACK.ORG API","18 SPCS","55092","SPACEBEE-166","PAYLOAD","U","23001CM","2024-03-30 22:44:33","859968","15.40116486","0.0010503","97.4274","156.4684","74.5696","285.671","0","999","6906","0.0016095","0.00064956","0","4254317","0 SPACEBEE-166","1 55092U 23001CM  24090.94761412  .00064956  00000-0  16095-2 0  9999","2 55092  97.4274 156.4684 0010503  74.5696 285.6710 15.40116486 69062","2023-001CM","55092","6823.902","93.499","452.934","438.600","0"
"GENERATED VIA SPACETRACK.ORG API","18 SPCS","55092","SPACEBEE-166","PAYLOAD","U","23001CM","2024-03-31 03:25:14","580768","15.40143468","0.001045","97.4276","156.6663","73.8647","286.3749","0","999","6909","0.0018772","0.00075947","0","4255305","0 SPACEBEE-166","1 55092U 23001CM  24091.14252987  .00075947  00000-0  18772-2 0  9990","2 55092  97.4276 156.6663 0010450  73.8647 286.3749 15.40143468 69095","2023-001CM","55092","6823.823","93.498","452.818","438.557","0"
"GENERATED VIA SPACETRACK.ORG API","18 SPCS","55092","SPACEBEE-166","PAYLOAD","U","23001CM","2024-03-31 03:25:14","580768","15.40143468","0.001045","97.4276","156.6663","73.8647","286.3749","0","999","6909","0.0018772","0.00075947","0","4255611","0 SPACEBEE-166","1 55092U 23001CM  24091.14252987  .00075947  00000-0  18772-2 0  9990","2 55092  97.4276 156.6663 0010450  73.8647 286.3749 15.40143468 69095","2023-001CM","55092","6823.823","93.498","452.818","438.557","0"
"GENERATED VIA SPACETRACK.ORG API","18 SPCS","55092","SPACEBEE-166","PAYLOAD","U","23001CM","2024-03-31 17:27:14","978880","15.40213114","0.0010415","97.4276","157.2604","71.6079","288.6299","0","999","6918","0.0014566","0.00058917","0","4255927","0 SPACEBEE-166","1 55092U 23001CM  24091.72725670  .00058917  00000-0  14566-2 0  9993","2 55092  97.4276 157.2604 0010415  71.6079 288.6299 15.40213114 69184","2023-001CM","55092","6823.617","93.494","452.589","438.375","0"
"GENERATED VIA SPACETRACK.ORG API","18 SPCS","55092","SPACEBEE-166","PAYLOAD","U","23001CM","2024-03-31 22:07:54","583392","15.40235344","0.0010382","97.4277","157.4581","71.2458","288.9913","0","999","6921","0.0013443","0.00054375","0","4256238","0 SPACEBEE-166","1 55092U 23001CM  24091.92215953  .00054375  00000-0  13443-2 0  9990","2 55092  97.4277 157.4581 0010382  71.2458 288.9913 15.40235344 69210","2023-001CM","55092","6823.551","93.492","452.500","438.332","0"
